[{"OBJECT_NAME":"GHGSAT-C4","OBJECT_ID":"2022-057Q","EPOCH":"2026-03-09T22:58:28.655904","MEAN_MOTION":15.3293316,"ECCENTRICITY":0.0007552,"INCLINATION":97.6357,"RA_OF_ASC_NODE":210.0193,"ARG_OF_PERICENTER":100.0033,"MEAN_ANOMALY":260.2061,"EPHEMERIS_TYPE":0,"CLASSIFICATION_TYPE":"U","NORAD_CAT_ID":52746,"ELEMENT_SET_NO":999,"REV_AT_EPOCH":21033,"BSTAR":0.00030289005,"MEAN_MOTION_DOT":9.562e-5,"MEAN_MOTION_DDOT":0},{"OBJECT_NAME":"STARLINK-30560","OBJECT_ID":"2023-156L","EPOCH":"2026-03-09T06:47:31.962048","MEAN_MOTION":15.30193311,"ECCENTRICITY":0.00013845,"INCLINATION":53.1606,"RA_OF_ASC_NODE":77.4177,"ARG_OF_PERICENTER":96.4557,"MEAN_ANOMALY":263.6601,"EPHEMERIS_TYPE":0,"CLASSIFICATION_TYPE":"U","NORAD_CAT_ID":58038,"ELEMENT_SET_NO":999,"REV_AT_EPOCH":13624,"BSTAR":1.821e-7,"MEAN_MOTION_DOT":-3.54e-6,"MEAN_MOTION_DDOT":0}]
